NORAD_CAT_ID,OBJECT_NAME,OBJECT_TYPE,EPOCH,MEAN_MOTION,ECCENTRICITY,INCLINATION,RA_OF_ASC_NODE,ARG_OF_PERICENTER,MEAN_ANOMALY,BSTAR,MEAN_MOTION_DOT,MEAN_MOTION_DDOT,TLE_LINE0,TLE_LINE1,TLE_LINE2,SEMIMAJOR_AXIS,PERIOD,APOGEE,PERIGEE,DECAYED
53629.0,STARLINK-4602,PAYLOAD,2024-07-11 16:28:36,15.08843674,0.0001691,53.217,74.2497,120.2276,239.8884,0.00016905,2.404e-05,0.0,0 STARLINK-4602,1 53629U 22104AT  24193.68653348  .00002404  00000-0  16905-3 0  9990,2 53629  53.2170  74.2497 0001691 120.2276 239.8884 15.08843674103580,6917.869,95.437,540.904,538.564,0.0
53629.0,STARLINK-4602,PAYLOAD,2024-07-12 08:22:27,15.08847316,0.0001412,53.2165,71.283,86.4259,273.6895,0.0001463,2.042e-05,0.0,0 STARLINK-4602,1 53629U 22104AT  24194.34893155  .00002042  00000-0  14630-3 0  9997,2 53629  53.2165  71.2830 0001412  86.4259 273.6895 15.08847316104370,6917.858,95.437,540.7,538.746,0.0
53629.0,STARLINK-4602,PAYLOAD,2024-07-12 21:05:33,15.08837784,0.0001569,53.218,68.9036,106.7147,253.4017,-2.9559e-05,-7.58e-06,0.0,0 STARLINK-4602,1 53629U 22104AT  24194.87885533 -.00000758  00000-0 -29559-4 0  9997,2 53629  53.2180  68.9036 0001569 106.7147 253.4017 15.08837784103765,6917.887,95.438,540.838,538.667,0.0
53629.0,STARLINK-4602,PAYLOAD,2024-07-12 22:40:56,15.08841868,0.0001378,53.2173,68.6108,100.6986,259.4161,1.0275e-06,-2.72e-06,0.0,0 STARLINK-4602,1 53629U 22104AT  24194.94509347 -.00000272  00000-0  10275-5 0  9997,2 53629  53.2173  68.6108 0001378 100.6986 259.4161 15.08841868104468,6917.875,95.437,540.693,538.786,0.0
53629.0,STARLINK-4602,PAYLOAD,2024-07-13 01:51:42,15.08847951,0.0001485,53.215,68.0149,106.0121,254.1035,-1.8013e-05,-5.75e-06,0.0,0 STARLINK-4602,1 53629U 22104AT  24195.07756959 -.00000575  00000-0 -18013-4 0  9999,2 53629  53.2150  68.0149 0001485 106.0121 254.1035 15.08847951103798,6917.856,95.437,540.748,538.694,0.0
53629.0,STARLINK-4602,PAYLOAD,2024-07-13 08:13:14,15.08844605,0.0001065,53.2159,66.821,92.4487,267.6627,3.9707e-05,3.44e-06,0.0,0 STARLINK-4602,1 53629U 22104AT  24195.34253035  .00000344  00000-0  39707-4 0  9991,2 53629  53.2159  66.8210 0001065  92.4487 267.6627 15.08844605104520,6917.866,95.437,540.468,538.995,0.0
53629.0,STARLINK-4602,PAYLOAD,2024-07-13 20:56:20,15.08833953,0.0001254,53.2163,64.4438,85.7299,274.3836,-1.9533e-05,-5.99e-06,0.0,0 STARLINK-4602,1 53629U 22104AT  24195.87245938 -.00000599  00000-0 -19533-4 0  9991,2 53629  53.2163  64.4438 0001254  85.7299 274.3836 15.08833953103910,6917.899,95.438,540.631,538.896,0.0
53629.0,STARLINK-4602,PAYLOAD,2024-07-13 22:31:43,15.08838398,0.0001112,53.2166,64.1491,102.4124,257.6993,2.1511e-05,5.5e-07,0.0,0 STARLINK-4602,1 53629U 22104AT  24195.93869655  .00000055  00000-0  21511-4 0  9990,2 53629  53.2166  64.1491 0001112 102.4124 257.6993 15.08838398104610,6917.885,95.438,540.52,538.981,0.0
53629.0,STARLINK-4602,PAYLOAD,2024-07-14 00:07:06,15.08841296,0.0001338,53.2179,63.8517,96.5473,263.5672,0.00010464,1.378e-05,0.0,0 STARLINK-4602,1 53629U 22104AT  24196.00493622  .00001378  00000-0  10464-3 0  9999,2 53629  53.2179  63.8517 0001338  96.5473 263.5672 15.08841296103934,6917.876,95.437,540.667,538.816,0.0
53629.0,STARLINK-4602,PAYLOAD,2024-07-14 08:04:02,15.08844147,0.0001306,53.2179,62.3649,90.8753,269.2389,6.924e-05,8.14e-06,0.0,0 STARLINK-4602,1 53629U 22104AT  24196.33613498  .00000814  00000-0  69240-4 0  9991,2 53629  53.2179  62.3649 0001306  90.8753 269.2389 15.08844147104675,6917.868,95.437,540.636,538.829,0.0
53629.0,STARLINK-4602,PAYLOAD,2024-07-14 22:22:30,15.08846069,0.0001172,53.2168,59.6868,82.6842,277.4283,0.00020148,2.921e-05,0.0,0 STARLINK-4602,1 53629U 22104AT  24196.93229508  .00002921  00000-0  20148-3 0  9996,2 53629  53.2168  59.6868 0001172  82.6842 277.4283 15.08846069104763,6917.862,95.437,540.538,538.916,0.0
53629.0,STARLINK-4602,PAYLOAD,2024-07-15 07:54:49,15.08841048,0.0001012,53.2158,57.9022,87.3797,272.7311,9.6532e-05,1.249e-05,0.0,0 STARLINK-4602,1 53629U 22104AT  24197.32973564  .00001249  00000-0  96532-4 0  9991,2 53629  53.2158  57.9022 0001012  87.3797 272.7311 15.08841048104132,6917.877,95.437,540.442,539.042,0.0
53629.0,STARLINK-4602,PAYLOAD,2024-07-15 14:16:22,15.08834566,0.000137,53.2167,56.7159,87.4023,272.7126,8.1736e-05,1.013e-05,0.0,0 STARLINK-4602,1 53629U 22104AT  24197.59470215  .00001013  00000-0  81736-4 0  9994,2 53629  53.2167  56.7159 0001370  87.4023 272.7126 15.08834566104861,6917.897,95.438,540.71,538.814,0.0
53629.0,STARLINK-4602,PAYLOAD,2024-07-15 20:37:55,15.08833306,0.0001521,53.218,55.5252,82.14,277.9764,-4.6157e-05,-1.022e-05,0.0,0 STARLINK-4602,1 53629U 22104AT  24197.85966441 -.00001022  00000-0 -46157-4 0  9994,2 53629  53.2180  55.5252 0001521  82.1400 277.9764 15.08833306104211,6917.901,95.438,540.818,538.714,0.0
53629.0,STARLINK-4602,PAYLOAD,2024-07-15 22:13:18,15.0883594,0.0001379,53.2174,55.2273,84.1574,275.9575,-1.341e-05,-5.01e-06,0.0,0 STARLINK-4602,1 53629U 22104AT  24197.92590285 -.00000501  00000-0 -13410-4 0  9998,2 53629  53.2174  55.2273 0001379  84.1574 275.9575 15.08835940104910,6917.893,95.438,540.712,538.804,0.0
53629.0,STARLINK-4602,PAYLOAD,2024-07-16 07:45:36,15.08841173,0.000123,53.2169,53.4415,86.9881,273.1252,6.8209e-05,7.98e-06,0.0,0 STARLINK-4602,1 53629U 22104AT  24198.32334004  .00000798  00000-0  68209-4 0  9990,2 53629  53.2169  53.4415 0001230  86.9881 273.1252 15.08841173104286,6917.877,95.437,540.593,538.891,0.0
53629.0,STARLINK-4602,PAYLOAD,2024-07-16 20:28:41,15.08853046,0.0001159,53.2168,51.0612,93.905,266.2074,0.00015387,2.163e-05,0.0,0 STARLINK-4602,1 53629U 22104AT  24198.85325316  .00002163  00000-0  15387-3 0  9990,2 53629  53.2168  51.0612 0001159  93.9050 266.2074 15.08853046104360,6917.841,95.437,540.507,538.904,0.0
53629.0,STARLINK-4602,PAYLOAD,2024-07-17 07:36:23,15.08834436,0.0001759,53.217,48.9803,84.1948,275.9245,1.3455e-05,-7.4e-07,0.0,0 STARLINK-4602,1 53629U 22104AT  24199.31694373 -.00000074  00000-0  13455-4 0  9999,2 53629  53.2170  48.9803 0001759  84.1948 275.9245 15.08834436104431,6917.897,95.438,540.979,538.546,0.0
53629.0,STARLINK-4602,PAYLOAD,2024-07-17 20:19:29,15.08835815,0.0001265,53.2173,46.601,94.2778,265.8359,8.6717e-06,-1.5e-06,0.0,0 STARLINK-4602,1 53629U 22104AT  24199.84686390 -.00000150  00000-0  86717-5 0  9994,2 53629  53.2173  46.6010 0001265  94.2778 265.8359 15.08835815105206,6917.893,95.438,540.633,538.883,0.0
53629.0,STARLINK-4602,PAYLOAD,2024-07-18 07:27:10,15.08839475,0.0001264,53.2175,44.5164,112.6598,247.4528,0.0001181,1.592e-05,0.0,0 STARLINK-4602,1 53629U 22104AT  24200.31054294  .00001592  00000-0  11810-3 0  9991,2 53629  53.2175  44.5164 0001264 112.6598 247.4528 15.08839475105276,6917.882,95.438,540.621,538.873,0.0
53629.0,STARLINK-4602,PAYLOAD,2024-07-18 20:10:15,15.08847397,0.0001402,53.2185,42.1399,89.2298,270.8855,0.00020294,2.944e-05,0.0,0 STARLINK-4602,1 53629U 22104AT  24200.84046193  .00002944  00000-0  20294-3 0  9996,2 53629  53.2185  42.1399 0001402  89.2298 270.8855 15.08847397104668,6917.858,95.437,540.693,538.753,0.0
53629.0,STARLINK-4602,PAYLOAD,2024-07-18 23:21:02,15.08850839,0.00014,53.2186,41.5438,96.7115,263.4037,0.00029872,4.471e-05,0.0,0 STARLINK-4602,1 53629U 22104AT  24200.97294032  .00004471  00000-0  29872-3 0  9995,2 53629  53.2186  41.5438 0001400  96.7115 263.4037 15.08850839105379,6917.847,95.437,540.681,538.744,0.0
53629.0,STARLINK-4602,PAYLOAD,2024-07-19 20:01:03,15.08846843,0.0001263,53.2173,37.6839,84.9143,275.1993,0.00027698,4.124e-05,0.0,0 STARLINK-4602,1 53629U 22104AT  24201.83406303  .00004124  00000-0  27698-3 0  9996,2 53629  53.2173  37.6839 0001263  84.9143 275.1993 15.08846843104812,6917.859,95.437,540.598,538.851,0.0
53629.0,STARLINK-4602,PAYLOAD,2024-07-20 05:33:21,15.08849039,9.3e-05,53.2173,35.8958,77.1299,282.9797,0.00021982,3.213e-05,0.0,0 STARLINK-4602,1 53629U 22104AT  24202.23149954  .00003213  00000-0  21982-3 0  9995,2 53629  53.2173  35.8958 0000930  77.1299 282.9797 15.08849039105561,6917.853,95.437,540.361,539.074,0.0
53629.0,STARLINK-4602,PAYLOAD,2024-07-20 19:51:49,15.08867408,0.0001093,53.2174,33.2176,65.3085,294.8021,0.00055796,8.61e-05,0.0,0 STARLINK-4602,1 53629U 22104AT  24202.82765131  .00008610  00000-0  55796-3 0  9997,2 53629  53.2174  33.2176 0001093  65.3085 294.8021 15.08867408105651,6917.797,95.436,540.418,538.905,0.0
53629.0,STARLINK-4602,PAYLOAD,2024-07-21 05:24:08,15.08844651,7.31e-05,53.2158,31.4405,65.9129,294.1939,7.6897e-05,9.37e-06,0.0,0 STARLINK-4602,1 53629U 22104AT  24203.22510007  .00000937  00000-0  76897-4 0  9992,2 53629  53.2158  31.4405 0000731  65.9129 294.1939 15.08844651105028,6917.866,95.437,540.237,539.225,0.0
53629.0,STARLINK-4602,PAYLOAD,2024-07-21 19:42:38,15.08838441,0.000112,53.2182,28.7653,103.1234,256.9883,0.00014332,1.994e-05,0.0,0 STARLINK-4602,1 53629U 22104AT  24203.82127654  .00001994  00000-0  14332-3 0  9999,2 53629  53.2182  28.7653 0001120 103.1234 256.9883 15.08838441105118,6917.885,95.438,540.525,538.975,0.0
53629.0,STARLINK-4602,PAYLOAD,2024-07-22 11:36:29,15.0884837,0.0001104,53.2172,25.7846,63.5059,296.6046,0.00038924,5.914e-05,0.0,0 STARLINK-4602,1 53629U 22104AT  24204.48367337  .00005914  00000-0  38924-3 0  9995,2 53629  53.2172  25.7846 0001104  63.5059 296.6046 15.08848370105905,6917.855,95.437,540.484,538.956,0.0
53629.0,STARLINK-4602,PAYLOAD,2024-07-22 21:08:46,15.08874672,0.000137,53.2174,24.0033,89.786,270.3289,0.00043109,6.586e-05,0.0,0 STARLINK-4602,1 53629U 22104AT  24204.88109540  .00006586  00000-0  43109-3 0  9996,2 53629  53.2174  24.0033 0001370  89.7860 270.3289 15.08874672105960,6917.774,95.435,540.587,538.692,0.0
53629.0,STARLINK-4602,PAYLOAD,2024-07-24 11:18:03,15.08846734,0.0004036,53.2173,16.8648,88.1224,272.0231,0.00016638,2.361e-05,0.0,0 STARLINK-4602,1 53629U 22104AT  24206.47087447  .00002361  00000-0  16638-3 0  9998,2 53629  53.2173  16.8648 0004036  88.1224 272.0231 15.08846734105514,6917.86,95.437,542.517,536.933,0.0
